BEIDOU-3 M28            
1 58654U 23207A   26155.94923264 -.00000042  00000+0  00000+0 0  9995
2 58654  55.7423  62.7161 0003602 342.0403  17.9737  1.86229818 16619
BEIDOU-3 M26            
1 58655U 23207B   26154.13584299 -.00000050  00000+0  00000+0 0  9996
2 58655  55.7428  62.7637 0003644 315.9700  44.0214  1.86229917 16563
GSAT0225 (GALILEO 29)   
1 59598U 24079A   26157.55442148  .00000022  00000+0  00000+0 0  9994
2 59598  55.1131 101.3778 0001833 289.9052 250.1947  1.70474149 13134
GSAT0227 (GALILEO 30)   
1 59600U 24079C   26155.09799679  .00000011  00000+0  00000+0 0  9997
2 59600  55.1072 101.4444 0001821  42.0743 317.8998  1.70474129 13141
GSAT0232 (GALILEO 32)   
1 61182U 24167A   26156.51626285  .00000042  00000+0  00000+0 0  9997
2 61182  55.1880 221.6344 0005893 224.4128 141.5523  1.70474551 10687
GSAT0226 (GALILEO 31)   
1 61183U 24167B   26157.52670527  .00000042  00000+0  00000+0 0  9998
2 61183  55.1865 221.6139 0002696 222.0602 135.3769  1.70474489 10663
BEIDOU-3 M25            
1 61186U 24168B   26155.83666087 -.00000058  00000+0  00000+0 0  9998
2 61186  54.4852 302.6721 0003063 306.3392 231.2716  1.86230297 11553
BEIDOU-3 M27            
1 61187U 24168C   26156.98532191 -.00000055  00000+0  00000+0 0  9991
2 61187  54.4796 302.6153 0001749  47.7222 315.0311  1.86230323  9051
NAVSTAR 83 (USA 440)    
1 62339U 24242A   26157.87246404 -.00000064  00000+0  00000+0 0  9992
2 62339  54.8526 334.6000 0017392   4.1910 356.8034  2.00571511 11056
QZS-6 (MICHIBIKI-6)     
1 62876U 25023A   26157.97770390 -.00000220  00000+0  00000+0 0  9997
2 62876   0.0262  45.4258 0002049  37.8805 254.5455  1.00274475  4841
COSMOS 2584 [GLONASS-K2]
1 63130U 25042A   26155.93958162 -.00000009  00000+0  00000+0 0  9996
2 63130  65.0776  73.2182 0005831 229.2014 130.7692  2.13103948  9789
NAVSTAR 84 (USA 545)    
1 64202U 25116A   26155.36633038 -.00000073  00000+0  00000+0 0  9999
2 64202  55.2259  31.6468 0008452 337.8257 196.1658  2.00577081  7616
COSMOS 2596 [GLONASS-K1]
1 65590U 25206B   26157.90239272 -.00000030  00000+0  00000+0 0  9997
2 65590  64.6406 315.3439 0011125 313.4105 228.8307  2.13100813  5697
GSAT0233 (GALILEO 33)   
1 67160U 25302A   26155.68420046  .00000015  00000+0  00000+0 0  9995
2 67160  54.3286 102.4877 0001349 235.7171 167.4266  1.70474377  2916
GSAT0234 (GALILEO 34)   
1 67162U 25302C   26154.85627277  .00000010  00000+0  00000+0 0  9995
2 67162  54.3286 102.5103 0003271 302.9496 132.1778  1.70474390  2950
NAVSTAR 85 (USA 581)    
1 67588U 26017A   26156.23183609  .00000004  00000+0  00000+0 0  9994
2 67588  55.0812  89.2351 0022663 257.5579 102.1794  2.00571538431377
NAVSTAR 86 (USA 585)    
1 68791U 26087A   26156.43970229  .00000045  00000+0  00000+0 0  9997
2 68791  54.9639 208.2526 0020960 107.2589 248.2165  2.00569475   593
